start=new Date('2022-05-05T00:00:00.000Z').valueOf();
sats=[{"LAUNCH_DATE":"2021-01-20","MEAN_MOTION_DDOT":"0.0000000000000","MEAN_MOTION_DOT":"0.00002186","MEAN_ANOMALY":"309.8041","MEAN_MOTION":"15.06399379","PERIAPSIS":"545.928","RCS_SIZE":"LARGE","SITE":"AFETR","COUNTRY_CODE":"US","FILE":"3428921","DECAY_DATE":null,"REF_FRAME":"TEME","PERIOD":"95.592","ARG_OF_PERICENTER":"50.3112","GP_ID":"202688526","TLE_LINE2":"2 47388  53.0540 248.5120 0001859  50.3112 309.8041 15.06399379 72248","APOAPSIS":"548.503","BSTAR":"0.00016564000000","OBJECT_NAME":"STARLINK-2109","SEMIMAJOR_AXIS":"6925.350","ECCENTRICITY":"0.00018590","CLASSIFICATION_TYPE":"U","RA_OF_ASC_NODE":"248.5120","ELEMENT_SET_NO":"999","EPHEMERIS_TYPE":"0","TIME_SYSTEM":"UTC","REV_AT_EPOCH":"7224","MEAN_ELEMENT_THEORY":"SGP4","OBJECT_TYPE":"PAYLOAD","INCLINATION":"53.0540","CENTER_NAME":"EARTH","EPOCH":"2022-05-04T18:40:47.044992","TLE_LINE1":"1 47388U 21005AR  22124.77832228  .00002186  00000-0  16564-3 0  9990","OBJECT_ID":"2021-005AR","NORAD_CAT_ID":"47388"},{"SITE":"AFETR","RCS_SIZE":"LARGE","PERIAPSIS":"545.915","MEAN_MOTION_DDOT":"0.0000000000000","MEAN_MOTION_DOT":"0.00007968","MEAN_ANOMALY":"305.5937","LAUNCH_DATE":"2021-01-20","MEAN_MOTION":"15.06425865","DECAY_DATE":null,"ARG_OF_PERICENTER":"54.5216","GP_ID":"202715840","PERIOD":"95.590","REF_FRAME":"TEME","FILE":"3429148","COUNTRY_CODE":"US","ELEMENT_SET_NO":"999","RA_OF_ASC_NODE":"228.6124","ECCENTRICITY":"0.00017600","CLASSIFICATION_TYPE":"U","APOAPSIS":"548.353","TLE_LINE2":"2 47389  53.0542 228.6124 0001760  54.5216 305.5937 15.06425865 71567","SEMIMAJOR_AXIS":"6925.269","OBJECT_NAME":"STARLINK-2110","BSTAR":"0.00055283000000","OBJECT_ID":"2021-005AS","NORAD_CAT_ID":"47389","INCLINATION":"53.0542","EPOCH":"2022-05-04T18:11:35.350656","TLE_LINE1":"1 47389U 21005AS  22124.75804804  .00007968  00000-0  55283-3 0  9992","CENTER_NAME":"EARTH","REV_AT_EPOCH":"7156","MEAN_ELEMENT_THEORY":"SGP4","TIME_SYSTEM":"UTC","OBJECT_TYPE":"PAYLOAD","EPHEMERIS_TYPE":"0"},{"ECCENTRICITY":"0.00016400","CLASSIFICATION_TYPE":"U","APOAPSIS":"548.306","TLE_LINE2":"2 47390  53.0552 248.9279 0001640  55.3842 304.7302 15.06414269 71278","SEMIMAJOR_AXIS":"6925.305","OBJECT_NAME":"STARLINK-2111","BSTAR":"0.00055073000000","ELEMENT_SET_NO":"999","RA_OF_ASC_NODE":"248.9279","MEAN_ELEMENT_THEORY":"SGP4","REV_AT_EPOCH":"7127","TIME_SYSTEM":"UTC","OBJECT_TYPE":"PAYLOAD","EPHEMERIS_TYPE":"0","OBJECT_ID":"2021-005AT","NORAD_CAT_ID":"47390","INCLINATION":"53.0552","TLE_LINE1":"1 47390U 21005AT  22124.68616919  .00007934  00000-0  55073-3 0  9994","EPOCH":"2022-05-04T16:28:05.018016","CENTER_NAME":"EARTH","MEAN_MOTION_DOT":"0.00007934","MEAN_MOTION_DDOT":"0.0000000000000","MEAN_ANOMALY":"304.7302","LAUNCH_DATE":"2021-01-20","MEAN_MOTION":"15.06414269","SITE":"AFETR","RCS_SIZE":"LARGE","PERIAPSIS":"546.034","COUNTRY_CODE":"US","DECAY_DATE":null,"GP_ID":"202716587","ARG_OF_PERICENTER":"55.3842","PERIOD":"95.591","REF_FRAME":"TEME","FILE":"3429148"},{"OBJECT_ID":"2021-005AU","NORAD_CAT_ID":"47391","INCLINATION":"53.0571","EPOCH":"2022-05-04T15:05:47.353920","TLE_LINE1":"1 47391U 21005AU  22124.62902030  .00002648  00000-0  19662-3 0  9992","CENTER_NAME":"EARTH","REV_AT_EPOCH":"7168","MEAN_ELEMENT_THEORY":"SGP4","TIME_SYSTEM":"UTC","OBJECT_TYPE":"PAYLOAD","EPHEMERIS_TYPE":"0","ELEMENT_SET_NO":"999","RA_OF_ASC_NODE":"219.1856","ECCENTRICITY":"0.00017730","CLASSIFICATION_TYPE":"U","APOAPSIS":"548.463","TLE_LINE2":"2 47391  53.0571 219.1856 0001773  49.6659 310.4485 15.06392824 71683","SEMIMAJOR_AXIS":"6925.371","OBJECT_NAME":"STARLINK-2112","BSTAR":"0.00019662000000","DECAY_DATE":null,"GP_ID":"202714842","ARG_OF_PERICENTER":"49.6659","PERIOD":"95.593","REF_FRAME":"TEME","FILE":"3429148","COUNTRY_CODE":"US","SITE":"AFETR","RCS_SIZE":"LARGE","PERIAPSIS":"546.008","MEAN_MOTION_DDOT":"0.0000000000000","MEAN_ANOMALY":"310.4485","MEAN_MOTION_DOT":"0.00002648","LAUNCH_DATE":"2021-01-20","MEAN_MOTION":"15.06392824"},{"SITE":"AFETR","RCS_SIZE":"LARGE","PERIAPSIS":"546.166","MEAN_MOTION":"15.06400111","MEAN_MOTION_DDOT":"0.0000000000000","MEAN_ANOMALY":"296.1408","MEAN_MOTION_DOT":"-0.00001392","LAUNCH_DATE":"2021-01-20","GP_ID":"202682191","ARG_OF_PERICENTER":"63.9736","PERIOD":"95.592","REF_FRAME":"TEME","DECAY_DATE":null,"FILE":"3428698","COUNTRY_CODE":"US","ELEMENT_SET_NO":"999","RA_OF_ASC_NODE":"219.7722","CLASSIFICATION_TYPE":"U","ECCENTRICITY":"0.00015120","SEMIMAJOR_AXIS":"6925.348","BSTAR":"-0.00007456300000","OBJECT_NAME":"STARLINK-2113","APOAPSIS":"548.260","TLE_LINE2":"2 47392  53.0549 219.7722 0001512  63.9736 296.1408 15.06400111 71665","NORAD_CAT_ID":"47392","OBJECT_ID":"2021-005AV","TLE_LINE1":"1 47392U 21005AV  22124.49726916 -.00001392  00000-0 -74563-4 0  9994","EPOCH":"2022-05-04T11:56:04.055424","CENTER_NAME":"EARTH","INCLINATION":"53.0549","OBJECT_TYPE":"PAYLOAD","REV_AT_EPOCH":"7166","MEAN_ELEMENT_THEORY":"SGP4","TIME_SYSTEM":"UTC","EPHEMERIS_TYPE":"0"},{"RA_OF_ASC_NODE":"193.9029","ELEMENT_SET_NO":"999","OBJECT_NAME":"STARLINK-2114","BSTAR":"0.00021242000000","SEMIMAJOR_AXIS":"6925.336","TLE_LINE2":"2 47393  53.0528 193.9029 0001698  54.6002 305.5145 15.06403992 72040","APOAPSIS":"548.377","CLASSIFICATION_TYPE":"U","ECCENTRICITY":"0.00016980","CENTER_NAME":"EARTH","TLE_LINE1":"1 47393U 21005AW  22124.68845791  .00002884  00000-0  21242-3 0  9999","EPOCH":"2022-05-04T16:31:22.763424","INCLINATION":"53.0528","NORAD_CAT_ID":"47393","OBJECT_ID":"2021-005AW","EPHEMERIS_TYPE":"0","OBJECT_TYPE":"PAYLOAD","TIME_SYSTEM":"UTC","MEAN_ELEMENT_THEORY":"SGP4","REV_AT_EPOCH":"7204","PERIAPSIS":"546.025","RCS_SIZE":"LARGE","SITE":"AFETR","MEAN_MOTION":"15.06403992","LAUNCH_DATE":"2021-01-20","MEAN_MOTION_DDOT":"0.0000000000000","MEAN_MOTION_DOT":"0.00002884","MEAN_ANOMALY":"305.5145","FILE":"3429148","REF_FRAME":"TEME","PERIOD":"95.592","ARG_OF_PERICENTER":"54.6002","GP_ID":"202716340","DECAY_DATE":null,"COUNTRY_CODE":"US"},{"RCS_SIZE":"LARGE","SITE":"AFETR","PERIAPSIS":"546.209","LAUNCH_DATE":"2021-01-20","MEAN_MOTION_DDOT":"0.0000000000000","MEAN_ANOMALY":"315.2702","MEAN_MOTION_DOT":"0.00011358","MEAN_MOTION":"15.06428382","DECAY_DATE":null,"PERIOD":"95.590","REF_FRAME":"TEME","ARG_OF_PERICENTER":"44.8394","GP_ID":"202716088","FILE":"3429148","COUNTRY_CODE":"US","ELEMENT_SET_NO":"999","RA_OF_ASC_NODE":"213.8248","ECCENTRICITY":"0.00013250","CLASSIFICATION_TYPE":"U","TLE_LINE2":"2 47394  53.0521 213.8248 0001325  44.8394 315.2702 15.06428382 71777","APOAPSIS":"548.044","OBJECT_NAME":"STARLINK-2115","BSTAR":"0.00077960000000","SEMIMAJOR_AXIS":"6925.262","OBJECT_ID":"2021-005AX","NORAD_CAT_ID":"47394","INCLINATION":"53.0521","CENTER_NAME":"EARTH","EPOCH":"2022-05-04T16:55:15.103488","TLE_LINE1":"1 47394U 21005AX  22124.70503592  .00011358  00000-0  77960-3 0  9997","TIME_SYSTEM":"UTC","REV_AT_EPOCH":"7177","MEAN_ELEMENT_THEORY":"SGP4","OBJECT_TYPE":"PAYLOAD","EPHEMERIS_TYPE":"0"},{"INCLINATION":"53.0541","TLE_LINE1":"1 47395U 21005AY  22124.74146244  .00005780  00000-0  40662-3 0  9990","EPOCH":"2022-05-04T17:47:42.354816","CENTER_NAME":"EARTH","OBJECT_ID":"2021-005AY","NORAD_CAT_ID":"47395","EPHEMERIS_TYPE":"0","MEAN_ELEMENT_THEORY":"SGP4","REV_AT_EPOCH":"7184","TIME_SYSTEM":"UTC","OBJECT_TYPE":"PAYLOAD","RA_OF_ASC_NODE":"208.6832","ELEMENT_SET_NO":"999","APOAPSIS":"548.638","TLE_LINE2":"2 47395  53.0541 208.6832 0002055  43.3068 316.8082 15.06399447 71849","SEMIMAJOR_AXIS":"6925.350","OBJECT_NAME":"STARLINK-2117","BSTAR":"0.00040662000000","ECCENTRICITY":"0.00020550","CLASSIFICATION_TYPE":"U","FILE":"3428924","DECAY_DATE":null,"ARG_OF_PERICENTER":"43.3068","GP_ID":"202688573","PERIOD":"95.592","REF_FRAME":"TEME","COUNTRY_CODE":"US","PERIAPSIS":"545.792","SITE":"AFETR","RCS_SIZE":"LARGE","MEAN_ANOMALY":"316.8082","MEAN_MOTION_DDOT":"0.0000000000000","MEAN_MOTION_DOT":"0.00005780","LAUNCH_DATE":"2021-01-20","MEAN_MOTION":"15.06399447"},{"OBJECT_ID":"2021-005AZ","NORAD_CAT_ID":"47396","INCLINATION":"53.0544","EPOCH":"2022-05-04T15:38:59.191872","TLE_LINE1":"1 47396U 21005AZ  22124.65207398  .00001335  00000-0  10847-3 0  9993","CENTER_NAME":"EARTH","REV_AT_EPOCH":"7169","MEAN_ELEMENT_THEORY":"SGP4","TIME_SYSTEM":"UTC","OBJECT_TYPE":"PAYLOAD","EPHEMERIS_TYPE":"0","ELEMENT_SET_NO":"999","RA_OF_ASC_NODE":"219.0792","ECCENTRICITY":"0.00014520","CLASSIFICATION_TYPE":"U","APOAPSIS":"548.213","TLE_LINE2":"2 47396  53.0544 219.0792 0001452  63.3985 296.7153 15.06401881 71698","SEMIMAJOR_AXIS":"6925.343","BSTAR":"0.00010847000000","OBJECT_NAME":"STARLINK-2118","DECAY_DATE":null,"GP_ID":"202715593","ARG_OF_PERICENTER":"63.3985","PERIOD":"95.592","REF_FRAME":"TEME","FILE":"3429148","COUNTRY_CODE":"US","SITE":"AFETR","RCS_SIZE":"LARGE","PERIAPSIS":"546.202","MEAN_ANOMALY":"296.7153","MEAN_MOTION_DDOT":"0.0000000000000","MEAN_MOTION_DOT":"0.00001335","LAUNCH_DATE":"2021-01-20","MEAN_MOTION":"15.06401881"},{"RA_OF_ASC_NODE":"248.7865","ELEMENT_SET_NO":"999","OBJECT_NAME":"STARLINK-2119","BSTAR":"0.00033190000000","SEMIMAJOR_AXIS":"6925.353","TLE_LINE2":"2 47397  53.0536 248.7865 0001927  40.9756 319.1377 15.06398640 71285","APOAPSIS":"548.552","CLASSIFICATION_TYPE":"U","ECCENTRICITY":"0.00019270","CENTER_NAME":"EARTH","EPOCH":"2022-05-04T17:10:33.899232","TLE_LINE1":"1 47397U 21005BA  22124.71567013  .00004665  00000-0  33190-3 0  9999","INCLINATION":"53.0536","NORAD_CAT_ID":"47397","OBJECT_ID":"2021-005BA","EPHEMERIS_TYPE":"0","OBJECT_TYPE":"PAYLOAD","TIME_SYSTEM":"UTC","MEAN_ELEMENT_THEORY":"SGP4","REV_AT_EPOCH":"7128","PERIAPSIS":"545.883","RCS_SIZE":"LARGE","SITE":"AFETR","MEAN_MOTION":"15.06398640","LAUNCH_DATE":"2021-01-20","MEAN_MOTION_DDOT":"0.0000000000000","MEAN_ANOMALY":"319.1377","MEAN_MOTION_DOT":"0.00004665","FILE":"3429148","REF_FRAME":"TEME","PERIOD":"95.592","ARG_OF_PERICENTER":"40.9756","GP_ID":"202715841","DECAY_DATE":null,"COUNTRY_CODE":"US"}];
